0 NANOSAT(1)
1 28493U 04049B   13283.51088131  .00000476  00000-0  84784-4 0  6750
2 28493 098.3746 304.2898 0003501 324.6598 177.8427 14.71720218472872
0 NANOSAT(1)
1 28493U 04049B   13284.53260895  .00000529  00000-0  93299-4 0  6763
2 28493 098.3743 305.3412 0003458 320.2199 192.3600 14.71721249473021
0 NANOSAT(1)
1 28493U 04049B   13285.75084318  .00000528  00000-0  93208-4 0  6772
2 28493 098.3740 306.5948 0003419 315.0689 168.1033 14.71722226473205
0 NANOSAT(1)
1 28493U 04049B   13286.76969256  .00000608  00000-0  10601-3 0  6782
2 28493 098.3738 307.6432 0003392 310.8576 167.1625 14.71723009473352
0 NANOSAT(1)
1 28493U 04049B   13288.12062567  .00000864  00000-0  14704-3 0  6796
2 28493 098.3736 309.0331 0003386 304.9166 126.3492 14.71726626473555
0 NANOSAT(1)
1 28493U 04049B   13289.13465138  .00000666  00000-0  11537-3 0  6802
2 28493 098.3734 310.0764 0003365 300.5511 100.0327 14.71728814473702
0 NANOSAT(1)
1 28493U 04049B   13290.57697134  .00000659  00000-0  11414-3 0  6812
2 28493 098.3733 311.5602 0003340 294.3980 183.3587 14.71730787473918
0 NANOSAT(1)
1 28493U 04049B   13291.79799288  .00000703  00000-0  12121-3 0  6827
2 28493 098.3733 312.8163 0003317 288.9972 174.1539 14.71732025474090
0 NANOSAT(1)
1 28493U 04049B   13293.08463258  .00000759  00000-0  13025-3 0  6832
2 28493 098.3734 314.1398 0003326 283.2358 152.7683 14.71733801474288
0 NANOSAT(1)
1 28493U 04049B   13294.09610530  .00000716  00000-0  12333-3 0  6846
2 28493 098.3734 315.1803 0003340 278.6877 113.1455 14.71735642474430
0 NANOSAT(1)
1 28493U 04049B   13295.11773953  .00000764  00000-0  13105-3 0  6851
2 28493 098.3734 316.2314 0003347 274.1803 127.2936 14.71736863474588
0 NANOSAT(1)
1 28493U 04049B   13296.13742613  .00000749  00000-0  12859-3 0  6862
2 28493 098.3733 317.2804 0003383 269.6294 131.1762 14.71739152474737
